{"type": "FeatureCollection", "features": [ {"type": "Feature", "properties": {"norad_id": 64902, "name": "CO3D 2", "group": "resource", "lat": -43.18508950856325, "lon": 83.34176630315741, "alt_km": 512.0885747584252, "timestamp": "2025-12-26T05:31:12.157954+00:00", "meta": {"OBJECT_NAME": "CO3D 2", "OBJECT_ID": "2025-156D", "EPOCH": "2025-12-25T21:48:46.505376", "MEAN_MOTION": 15.20195892, "ECCENTRICITY": 7.938e-05, "INCLINATION": 97.434, "RA_OF_ASC_NODE": 75.9859, "ARG_OF_PERICENTER": 61.3032, "MEAN_ANOMALY": 298.8283, "EPHEMERIS_TYPE": 0, "CLASSIFICATION_TYPE": "U", "NORAD_CAT_ID": 64902, "ELEMENT_SET_NO": 999, "REV_AT_EPOCH": 2320, "BSTAR": 0.0001451831, "MEAN_MOTION_DOT": 3.076e-05, "MEAN_MOTION_DDOT": 0}, "tle": {"line1": "1 64902U 25156D   25359.90887159  .00003076  00000+0  14518-3 0  9998", "line2": "2 64902  97.4340  75.9859 0000793  61.3032 298.8283 15.20195892 23206"}}, "geometry": {"type": "Point", "coordinates": [83.34176630315741, -43.18508950856325]}}, {"type": "Feature", "properties": {"norad_id": 64903, "name": "CO3D 1", "group": "resource", "lat": -43.99442254574722, "lon": 83.5444406679489, "alt_km": 512.2118558971379, "timestamp": "2025-12-26T05:31:12.157964+00:00", "meta": {"OBJECT_NAME": "CO3D 1", "OBJECT_ID": "2025-156E", "EPOCH": "2025-12-25T21:48:59.687424", "MEAN_MOTION": 15.20203044, "ECCENTRICITY": 8.564e-05, "INCLINATION": 97.4338, "RA_OF_ASC_NODE": 75.9859, "ARG_OF_PERICENTER": 71.7297, "MEAN_ANOMALY": 288.4031, "EPHEMERIS_TYPE": 0, "CLASSIFICATION_TYPE": "U", "NORAD_CAT_ID": 64903, "ELEMENT_SET_NO": 999, "REV_AT_EPOCH": 2320, "BSTAR": 0.00029145633, "MEAN_MOTION_DOT": 6.247e-05, "MEAN_MOTION_DDOT": 0}, "tle": {"line1": "1 64903U 25156E   25359.90902416  .00006247  00000+0  29146-3 0  9999", "line2": "2 64903  97.4338  75.9859 0000856  71.7297 288.4031 15.20203044 23207"}}, "geometry": {"type": "Point", "coordinates": [83.5444406679489, -43.99442254574722]}}, {"type": "Feature", "properties": {"norad_id": 66514, "name": "SENTINEL-6B", "group": "resource", "lat": 17.945904250922066, "lon": 142.69465038821676, "alt_km": 1339.154170081637, "timestamp": "2025-12-26T05:31:12.157973+00:00", "meta": {"OBJECT_NAME": "SENTINEL-6B", "OBJECT_ID": "2025-264A", "EPOCH": "2025-12-25T18:10:28.373376", "MEAN_MOTION": 12.80929561, "ECCENTRICITY": 0.00079022, "INCLINATION": 66.0399, "RA_OF_ASC_NODE": 135.3964, "ARG_OF_PERICENTER": 269.9783, "MEAN_ANOMALY": 90.0326, "EPHEMERIS_TYPE": 0, "CLASSIFICATION_TYPE": "U", "NORAD_CAT_ID": 66514, "ELEMENT_SET_NO": 999, "REV_AT_EPOCH": 495, "BSTAR": 6.3134768e-05, "MEAN_MOTION_DOT": -4.6e-07, "MEAN_MOTION_DDOT": 0}, "tle": {"line1": "1 66514U 25264A   25359.75727284 -.00000046  00000+0  63135-4 0  9999", "line2": "2 66514  66.0399 135.3964 0007902 269.9783  90.0326 12.80929561  4951"}}, "geometry": {"type": "Point", "coordinates": [142.69465038821676, 17.945904250922066]}}]}